$$SOE
2461295.500000000, A.D. 2026-Sep-12 00:00:00.0000, 2.066696696668644E+08, 4.272042469530012E+08, -2.402444633642364E+07,
2461302.500000000, A.D. 2026-Sep-19 00:00:00.0000, 1.974910359899797E+08, 4.320258029434161E+08, -2.470654757290944E+07,
2461309.500000000, A.D. 2026-Sep-26 00:00:00.0000, 1.882232766812975E+08, 4.366524691331679E+08, -2.537750168033856E+07,
2461316.500000000, A.D. 2026-Oct-03 00:00:00.0000, 1.788708377379248E+08, 4.410827784461786E+08, -2.603704193719092E+07,
2461323.500000000, A.D. 2026-Oct-10 00:00:00.0000, 1.694381817633185E+08, 4.453153762603649E+08, -2.668490935116792E+07,
2461330.500000000, A.D. 2026-Oct-17 00:00:00.0000, 1.599297846282469E+08, 4.493490200682735E+08, -2.732085274064657E+07,
2461337.500000000, A.D. 2026-Oct-24 00:00:00.0000, 1.503501321712262E+08, 4.531825789346558E+08, -2.794462881408739E+07,
2461344.500000000, A.D. 2026-Oct-31 00:00:00.0000, 1.407037170412944E+08, 4.568150326885083E+08, -2.855600226200110E+07,
2461351.500000000, A.D. 2026-Nov-07 00:00:00.0000, 1.309950360262375E+08, 4.602454709280719E+08, -2.915474588663402E+07,
2461358.500000000, A.D. 2026-Nov-14 00:00:00.0000, 1.212285880716128E+08, 4.634730927306612E+08, -2.974064071547461E+07,
2461365.500000000, A.D. 2026-Nov-21 00:00:00.0000, 1.114088711836324E+08, 4.664972077517554E+08, -3.031347587675416E+07,
2461372.500000000, A.D. 2026-Nov-28 00:00:00.0000, 1.015403772201015E+08, 4.693172357053881E+08, -3.087304839061096E+07,
2461379.500000000, A.D. 2026-Dec-05 00:00:00.0000, 9.162758818924874E+07, 4.719327035728978E+08, -3.141916326098144E+07,
2461386.500000000, A.D. 2026-Dec-12 00:00:00.0000, 8.167497422345066E+07, 4.743432436563230E+08, -3.195163362911904E+07,
2461393.500000000, A.D. 2026-Dec-19 00:00:00.0000, 7.168699134224446E+07, 4.765485924867390E+08, -3.247028081499541E+07,
2461400.500000000, A.D. 2026-Dec-26 00:00:00.0000, 6.166807886313699E+07, 4.785485897241626E+08, -3.297493430440864E+07,
2461407.500000000, A.D. 2027-Jan-02 00:00:00.0000, 5.162265673718867E+07, 4.803431768635176E+08, -3.346543172291461E+07,
2461414.500000000, A.D. 2027-Jan-09 00:00:00.0000, 4.155512292742811E+07, 4.819323957719883E+08, -3.394161880600733E+07,
2461421.500000000, A.D. 2027-Jan-16 00:00:00.0000, 3.146985086600436E+07, 4.833163870712106E+08, -3.440334936842969E+07,
2461428.500000000, A.D. 2027-Jan-23 00:00:00.0000, 2.137118703597498E+07, 4.844953883289042E+08, -3.485048528042313E+07,
2461435.500000000, A.D. 2027-Jan-30 00:00:00.0000, 1.126344886478436E+07, 4.854697320161806E+08, -3.528289647238421E+07,
2461442.500000000, A.D. 2027-Feb-06 00:00:00.0000, 1.150923353050225E+06, 4.862398435747192E+08, -3.570046097950694E+07,
2461449.500000000, A.D. 2027-Feb-13 00:00:00.0000, -8.962134022582486E+06, 4.868062408181601E+08, -3.610306488511026E+07,
2461456.500000000, A.D. 2027-Feb-20 00:00:00.0000, -1.907150249634900E+07, 4.871695338801174E+08, -3.649060201100773E+07,
2461463.500000000, A.D. 2027-Feb-27 00:00:00.0000, -2.917299989532886E+07, 4.873304224964324E+08, -3.686297374555406E+07,
2461470.500000000, A.D. 2027-Mar-06 00:00:00.0000, -3.926248420086119E+07, 4.872896925485290E+08, -3.722008912946719E+07,
2461477.500000000, A.D. 2027-Mar-13 00:00:00.0000, -4.933585438995166E+07, 4.870482139227078E+08, -3.756186488602155E+07,
2461484.500000000, A.D. 2027-Mar-20 00:00:00.0000, -5.938905168605744E+07, 4.866069388538935E+08, -3.788822536068976E+07,
2461491.500000000, A.D. 2027-Mar-27 00:00:00.0000, -6.941806101804358E+07, 4.859669002077203E+08, -3.819910243390617E+07,
2461498.500000000, A.D. 2027-Apr-03 00:00:00.0000, -7.941891248544939E+07, 4.851292096564057E+08, -3.849443542979252E+07,
2461505.500000000, A.D. 2027-Apr-10 00:00:00.0000, -8.938768276989558E+07, 4.840950557747339E+08, -3.877417102490968E+07,
2461512.500000000, A.D. 2027-Apr-17 00:00:00.0000, -9.932049647169174E+07, 4.828657020449820E+08, -3.903826316053823E+07,
2461519.500000000, A.D. 2027-Apr-24 00:00:00.0000, -1.092135272936633E+08, 4.814424847116094E+08, -3.928667297110206E+07,
2461526.500000000, A.D. 2027-May-01 00:00:00.0000, -1.190629987740076E+08, 4.798268105163671E+08, -3.951936875418150E+07,
2461533.500000000, A.D. 2027-May-08 00:00:00.0000, -1.288651842625482E+08, 4.780201550652649E+08, -3.973632594943514E+07,
2461540.500000000, A.D. 2027-May-15 00:00:00.0000, -1.386164076388577E+08, 4.760240627845159E+08, -3.993752691168419E+07,
2461547.500000000, A.D. 2027-May-22 00:00:00.0000, -1.483130463364861E+08, 4.738401458763154E+08, -4.012296054675418E+07,
2461554.500000000, A.D. 2027-May-29 00:00:00.0000, -1.579515333188973E+08, 4.714700808065072E+08, -4.029262223752949E+07,
2461561.500000000, A.D. 2027-Jun-05 00:00:00.0000, -1.675283571256049E+08, 4.689156054586328E+08, -4.044651388564619E+07,
2461568.500000000, A.D. 2027-Jun-12 00:00:00.0000, -1.770400619978546E+08, 4.661785173899236E+08, -4.058464384990150E+07,
2461575.500000000, A.D. 2027-Jun-19 00:00:00.0000, -1.864832484161498E+08, 4.632606722563334E+08, -4.070702682752371E+07,
2461582.500000000, A.D. 2027-Jun-26 00:00:00.0000, -1.958545737720390E+08, 4.601639821469904E+08, -4.081368372526120E+07,
2461589.500000000, A.D. 2027-Jul-03 00:00:00.0000, -2.051507530440691E+08, 4.568904138382847E+08, -4.090464153174751E+07,
2461596.500000000, A.D. 2027-Jul-10 00:00:00.0000, -2.143685594429704E+08, 4.534419869783117E+08, -4.097993319383752E+07,
2461603.500000000, A.D. 2027-Jul-17 00:00:00.0000, -2.235048249913615E+08, 4.498207721646392E+08, -4.103959750341140E+07,
2461610.500000000, A.D. 2027-Jul-24 00:00:00.0000, -2.325564408828551E+08, 4.460288888539900E+08, -4.108367901402625E+07,
2461617.500000000, A.D. 2027-Jul-31 00:00:00.0000, -2.415203572103640E+08, 4.420685033400806E+08, -4.111222800567919E+07,
2461624.500000000, A.D. 2027-Aug-07 00:00:00.0000, -2.503935822660934E+08, 4.379418279517366E+08, -4.112530038494124E+07,
2461631.500000000, A.D. 2027-Aug-14 00:00:00.0000, -2.591731837165159E+08, 4.336511212189124E+08, -4.112295733013743E+07,
2461638.500000000, A.D. 2027-Aug-21 00:00:00.0000, -2.678562910355129E+08, 4.291986856427057E+08, -4.110526501310341E+07,
2461645.500000000, A.D. 2027-Aug-28 00:00:00.0000, -2.764400957672249E+08, 4.245868642717709E+08, -4.107229461366479E+07,
2461652.500000000, A.D. 2027-Sep-04 00:00:00.0000, -2.849218508039435E+08, 4.198180385892965E+08, -4.102412231464331E+07,
2461659.500000000, A.D. 2027-Sep-11 00:00:00.0000, -2.932988700768160E+08, 4.148946270522358E+08, -4.096082920432405E+07,
2461666.500000000, A.D. 2027-Sep-18 00:00:00.0000, -3.015685285273798E+08, 4.098190836342593E+08, -4.088250115223427E+07,
2461673.500000000, A.D. 2027-Sep-25 00:00:00.0000, -3.097282621322954E+08, 4.045938962956448E+08, -4.078922868590039E+07,
2461680.500000000, A.D. 2027-Oct-02 00:00:00.0000, -3.177755679076328E+08, 3.992215854082888E+08, -4.068110687351164E+07,
2461687.500000000, A.D. 2027-Oct-09 00:00:00.0000, -3.257080038717205E+08, 3.937047021318663E+08, -4.055823521519096E+07,
2461694.500000000, A.D. 2027-Oct-16 00:00:00.0000, -3.335231889048781E+08, 3.880458266867164E+08, -4.042071755339228E+07,
2461701.500000000, A.D. 2027-Oct-23 00:00:00.0000, -3.412188022476199E+08, 3.822475665180869E+08, -4.026866202691968E+07,
2461708.500000000, A.D. 2027-Oct-30 00:00:00.0000, -3.487925822642161E+08, 3.763125549622395E+08, -4.010218105321367E+07,
2461715.500000000, A.D. 2027-Nov-06 00:00:00.0000, -3.562423256371501E+08, 3.702434515429644E+08, -3.992139114025263E+07,
2461722.500000000, A.D. 2027-Nov-13 00:00:00.0000, -3.635658889798527E+08, 3.640429418234980E+08, -3.972641251601166E+07,
2461729.500000000, A.D. 2027-Nov-20 00:00:00.0000, -3.707611899661171E+08, 3.577137346281717E+08, -3.951736902016342E+07,
2461736.500000000, A.D. 2027-Nov-27 00:00:00.0000, -3.778262063595735E+08, 3.512585595967662E+08, -3.929438816377585E+07,
2461743.500000000, A.D. 2027-Dec-04 00:00:00.0000, -3.847589749694657E+08, 3.446801659854173E+08, -3.905760109691092E+07,
2461750.500000000, A.D. 2027-Dec-11 00:00:00.0000, -3.915575910851851E+08, 3.379813217508867E+08, -3.880714251261811E+07,
2461757.500000000, A.D. 2027-Dec-18 00:00:00.0000, -3.982202081157187E+08, 3.311648125792279E+08, -3.854315054021418E+07,
2461764.500000000, A.D. 2027-Dec-25 00:00:00.0000, -4.047450372832173E+08, 3.242334408564431E+08, -3.826576664186175E+07,
2461771.500000000, A.D. 2028-Jan-01 00:00:00.0000, -4.111303473305859E+08, 3.171900245954721E+08, -3.797513551496364E+07,
$$EOE